{
    "links": {
        "self": "http://www.neowsapp.com/rest/v1/neo/3553546?api_key=iIulBulltgU6a56xZRHN4H3l9WmuAYTsLGpBGhQ2"
    },
    "id": "3553546",
    "neo_reference_id": "3553546",
    "name": "(2010 XJ52)",
    "designation": "2010 XJ52",
    "nasa_jpl_url": "http://ssd.jpl.nasa.gov/sbdb.cgi?sstr=3553546",
    "absolute_magnitude_h": 25.2,
    "estimated_diameter": {
        "kilometers": {
            "estimated_diameter_min": 0.0242412481,
            "estimated_diameter_max": 0.0542050786
        },
        "meters": {
            "estimated_diameter_min": 24.2412481101,
            "estimated_diameter_max": 54.2050786336
        },
        "miles": {
            "estimated_diameter_min": 0.0150628086,
            "estimated_diameter_max": 0.0336814639
        },
        "feet": {
            "estimated_diameter_min": 79.5316564495,
            "estimated_diameter_max": 177.8381901842
        }
    },
    "is_potentially_hazardous_asteroid": false,
    "close_approach_data": [
        {
            "close_approach_date": "2010-12-03",
            "close_approach_date_full": "2010-Dec-03 00:21",
            "epoch_date_close_approach": 1291335660000,
            "relative_velocity": {
                "kilometers_per_second": "4.1834304185",
                "kilometers_per_hour": "15060.3495066694",
                "miles_per_hour": "9357.9155031858"
            },
            "miss_distance": {
                "astronomical": "0.0909570556",
                "lunar": "35.3822946284",
                "kilometers": "13606981.779231572",
                "miles": "8454986.4146848136"
            },
            "orbiting_body": "Earth"
        }
    ],
    "orbital_data": {
        "orbit_id": "5",
        "orbit_determination_date": "2017-04-06 08:55:14",
        "first_observation_date": "2010-12-09",
        "last_observation_date": "2010-12-10",
        "data_arc_in_days": 1,
        "observations_used": 10,
        "orbit_uncertainty": "9",
        "minimum_orbit_intersection": ".0900407",
        "jupiter_tisserand_invariant": "4.722",
        "epoch_osculation": "2455540.5",
        "eccentricity": ".234665970060901",
        "semi_major_axis": "1.398250140443934",
        "inclination": "6.728682539927359",
        "ascending_node_longitude": "263.2536783866384",
        "orbital_period": "603.9148853945302",
        "perihelion_distance": "1.070128414848867",
        "perihelion_argument": "159.6413992302741",
        "aphelion_distance": "1.726371866039001",
        "perihelion_time": "2455526.507036830495",
        "mean_anomaly": "8.34135217205465",
        "mean_motion": ".5961104928963896",
        "equinox": "J2000",
        "orbit_class": {
            "orbit_class_type": "AMO",
            "orbit_class_description": "Near-Earth asteroid orbits similar to that of 1221 Amor",
            "orbit_class_range": "1.017 AU < q (perihelion) < 1.3 AU"
        }
    },
    "is_sentry_object": false
}